VSP RF A1               
1 59135U 24043AP  26066.03073316  .00000577  00000+0  25199-4 0  9997
2 59135  97.5247 201.5379 0009431 234.6315 125.4042 15.26179596111403
STARLINK-32612          
1 61972U 24210P   26068.34235245  .00033572  00000+0  12230-2 0  9993
2 61972  43.0011 182.0561 0003043 285.6662  74.3854 15.27601895 74820
